EXO-0                   
1 59175U 23174DK  26068.71046781  .00011582  00000+0  36716-3 0  9992
2 59175  97.3864 148.9039 0009878 157.1125 203.0559 15.32821991129797
STARLINK-35474          
1 66437U 25259R   26068.58567873  .00025934  00000+0  94844-3 0  9994
2 66437  42.9986 275.0808 0001422 254.6465 105.4230 15.27586274 19470
