[{"OBJECT_NAME":"EXO-0","OBJECT_ID":"2023-174DK","EPOCH":"2026-03-09T17:03:04.419648","MEAN_MOTION":15.32821991,"ECCENTRICITY":0.00098779,"INCLINATION":97.3864,"RA_OF_ASC_NODE":148.9039,"ARG_OF_PERICENTER":157.1125,"MEAN_ANOMALY":203.0559,"EPHEMERIS_TYPE":0,"CLASSIFICATION_TYPE":"U","NORAD_CAT_ID":59175,"ELEMENT_SET_NO":999,"REV_AT_EPOCH":12979,"BSTAR":0.00036716083,"MEAN_MOTION_DOT":0.00011582,"MEAN_MOTION_DDOT":0},{"OBJECT_NAME":"STARLINK-35474","OBJECT_ID":"2025-259R","EPOCH":"2026-03-09T14:03:22.642272","MEAN_MOTION":15.27586274,"ECCENTRICITY":0.0001422,"INCLINATION":42.9986,"RA_OF_ASC_NODE":275.0808,"ARG_OF_PERICENTER":254.6465,"MEAN_ANOMALY":105.423,"EPHEMERIS_TYPE":0,"CLASSIFICATION_TYPE":"U","NORAD_CAT_ID":66437,"ELEMENT_SET_NO":999,"REV_AT_EPOCH":1947,"BSTAR":0.00094844,"MEAN_MOTION_DOT":0.00025934,"MEAN_MOTION_DDOT":0}]
